ALOS (DAICHI)           
1 28931U 06002A   25351.73419158  .00001110  00000+0  19545-3 0  9994
2 28931  98.1098 303.1864 0001361 113.5739 246.5610 14.69501788 61443
H-2A R/B                
1 28932U 06002B   26001.33854687  .00015492  00000+0  80178-3 0  9992
2 28932  98.2319 142.6953 0054667 110.3311 250.3805 15.15015149 84238
RESURS-DK 1             
1 29228U 06021A   26001.54215016  .00005360  00000+0  31477-3 0  9993
2 29228  69.9347  50.6570 0007001 242.1235 117.9222 15.12294480 77377
CZ-4B R/B               
1 29507U 06046C   26001.70301296  .00008617  00000+0  44382-3 0  9991
2 29507  97.5711  46.7875 0034881 137.7194 222.6737 15.16106124 49894
CZ-2C R/B               
1 31114U 07010B   26001.72719038  .00000306  00000+0  15938-3 0  9991
2 31114  98.3975 118.3723 0059835 128.3696 232.2878 14.20219475970219
COSMO-SKYMED 1          
1 31598U 07023A   26001.85615688  .00007227  00000+0  65023-3 0  9990
2 31598  97.8827 192.3890 0001198  87.3941 272.7417 14.95941794  4919
COSMOS 2428             
1 31792U 07029A   26001.34931449  .00000355  00000+0  21622-3 0  9994
2 31792  70.9377 344.7069 0004798 356.2676   3.8408 14.12899945954589
SL-16 R/B               
1 31793U 07029B   26001.33771782  .00000233  00000+0  14566-3 0  9990
2 31793  70.9773 313.9607 0002027 270.0741 205.1875 14.14824124955849
KORONAS-FOTON           
1 33504U 09003A   26001.42477361  .00015137  00000+0  35777-3 0  9998
2 33504  82.4307 345.7011 0012805  47.6963 312.5366 15.41608580935374
CZ-2C R/B               
1 37731U 11030B   26001.79181010  .00002609  00000+0  33612-3 0  9996
2 37731  97.8434 320.4581 0052036 206.7005 191.9399 14.80973370780195
H-2A R/B                
1 38341U 12025E   26001.52460044  .00004997  00000+0  45871-3 0  9999
2 38341  98.4624 323.2847 0044973 170.5389 189.6687 14.94593537738185
SHIJIAN-16 (SJ-16)      
1 39358U 13057A   26001.85248472  .00005357  00000+0  52828-3 0  9990
2 39358  74.9734 311.5956 0017941 273.5335  86.3801 14.92076055661530
